[{"OBJECT_NAME":"FLOCK 4G-17","OBJECT_ID":"2025-009CA","EPOCH":"2026-03-09T22:51:51.984864","MEAN_MOTION":15.27385439,"ECCENTRICITY":0.00036407,"INCLINATION":97.3966,"RA_OF_ASC_NODE":151.0229,"ARG_OF_PERICENTER":339.6132,"MEAN_ANOMALY":20.4962,"EPHEMERIS_TYPE":0,"CLASSIFICATION_TYPE":"U","NORAD_CAT_ID":62681,"ELEMENT_SET_NO":999,"REV_AT_EPOCH":12139,"BSTAR":0.00053710713,"MEAN_MOTION_DOT":0.00014342,"MEAN_MOTION_DDOT":0},{"OBJECT_NAME":"STARLINK-33876","OBJECT_ID":"2025-083F","EPOCH":"2026-03-09T05:06:22.440672","MEAN_MOTION":15.27590776,"ECCENTRICITY":0.00016181,"INCLINATION":43.0046,"RA_OF_ASC_NODE":7.9222,"ARG_OF_PERICENTER":268.9865,"MEAN_ANOMALY":91.0801,"EPHEMERIS_TYPE":0,"CLASSIFICATION_TYPE":"U","NORAD_CAT_ID":63639,"ELEMENT_SET_NO":999,"REV_AT_EPOCH":4999,"BSTAR":0.0013464953,"MEAN_MOTION_DOT":0.00036989,"MEAN_MOTION_DDOT":0}]
